{
  "type": "FeatureCollection",
  "features": [
    {
      "type": "Feature",
      "properties": {
        "norad_id": 33630,
        "name": "FENGYUN 1C DEB",
        "group": "fengyun-1c-debris",
        "lat": -74.71043251935156,
        "lon": -120.63375520692782,
        "alt_km": 936.7220632960216,
        "timestamp": "2025-12-12T20:43:07.321756+00:00",
        "meta_object_name": "FENGYUN 1C DEB",
        "meta_object_id": "1999-025DDP",
        "meta_epoch": "2025-12-09T13:35:56.277312",
        "meta_mean_motion": 14.17713216,
        "meta_eccentricity": 0.0135528,
        "meta_inclination": 98.6166,
        "meta_ra_of_asc_node": 89.8546,
        "meta_arg_of_pericenter": 77.2482,
        "meta_mean_anomaly": 284.3802,
        "meta_ephemeris_type": 0,
        "meta_classification_type": "U",
        "meta_norad_cat_id": 33630,
        "meta_element_set_no": 999,
        "meta_rev_at_epoch": 64366,
        "meta_bstar": 0.00061826,
        "meta_mean_motion_dot": 1.337e-05,
        "meta_mean_motion_ddot": 0,
        "tle_line1": "1 33630U 99025DDP 25343.56662358  .00001337  00000+0  61826-3 0  9997",
        "tle_line2": "2 33630  98.6166  89.8546 0135528  77.2482 284.3802 14.17713216643662"
      },
      "geometry": {
        "type": "Point",
        "coordinates": [
          -120.63375520692782,
          -74.71043251935156
        ]
      }
    },
    {
      "type": "Feature",
      "properties": {
        "norad_id": 33633,
        "name": "FENGYUN 1C DEB",
        "group": "fengyun-1c-debris",
        "lat": -58.78794732516193,
        "lon": 96.40347295517944,
        "alt_km": 885.8725853057958,
        "timestamp": "2025-12-12T20:43:07.321766+00:00",
        "meta_object_name": "FENGYUN 1C DEB",
        "meta_object_id": "1999-025DDS",
        "meta_epoch": "2025-12-12T05:54:30.955104",
        "meta_mean_motion": 14.19329776,
        "meta_eccentricity": 0.00830759,
        "meta_inclination": 99.0576,
        "meta_ra_of_asc_node": 80.5087,
        "meta_arg_of_pericenter": 152.7608,
        "meta_mean_anomaly": 235.4895,
        "meta_ephemeris_type": 0,
        "meta_classification_type": "U",
        "meta_norad_cat_id": 33633,
        "meta_element_set_no": 999,
        "meta_rev_at_epoch": 90704,
        "meta_bstar": 0.0036236562,
        "meta_mean_motion_dot": 7.838e-05,
        "meta_mean_motion_ddot": 0,
        "tle_line1": "1 33633U 99025DDS 25346.24619161  .00007838  00000+0  36237-2 0  9991",
        "tle_line2": "2 33633  99.0576  80.5087 0083075 152.7608 235.4895 14.19329776907041"
      },
      "geometry": {
        "type": "Point",
        "coordinates": [
          96.40347295517944,
          -58.78794732516193
        ]
      }
    },
    {
      "type": "Feature",
      "properties": {
        "norad_id": 33637,
        "name": "FENGYUN 1C DEB",
        "group": "fengyun-1c-debris",
        "lat": -8.92179873282488,
        "lon": -149.5026166906839,
        "alt_km": 726.1766478809423,
        "timestamp": "2025-12-12T20:43:07.321776+00:00",
        "meta_object_name": "FENGYUN 1C DEB",
        "meta_object_id": "1999-025DDW",
        "meta_epoch": "2025-12-11T08:44:50.038656",
        "meta_mean_motion": 14.36733805,
        "meta_eccentricity": 0.00831045,
        "meta_inclination": 98.493,
        "meta_ra_of_asc_node": 30.363,
        "meta_arg_of_pericenter": 155.527,
        "meta_mean_anomaly": 204.9897,
        "meta_ephemeris_type": 0,
        "meta_classification_type": "U",
        "meta_norad_cat_id": 33637,
        "meta_element_set_no": 999,
        "meta_rev_at_epoch": 64818,
        "meta_bstar": 0.0022658521,
        "meta_mean_motion_dot": 6.913e-05,
        "meta_mean_motion_ddot": 0,
        "tle_line1": "1 33637U 99025DDW 25345.36446804  .00006913  00000+0  22659-2 0  9995",
        "tle_line2": "2 33637  98.4930  30.3630 0083104 155.5270 204.9897 14.36733805648189"
      },
      "geometry": {
        "type": "Point",
        "coordinates": [
          -149.5026166906839,
          -8.92179873282488
        ]
      }
    },
    {
      "type": "Feature",
      "properties": {
        "norad_id": 33638,
        "name": "FENGYUN 1C DEB",
        "group": "fengyun-1c-debris",
        "lat": -67.4258414201174,
        "lon": -101.47138576436242,
        "alt_km": 823.1931865648394,
        "timestamp": "2025-12-12T20:43:07.321800+00:00",
        "meta_object_name": "FENGYUN 1C DEB",
        "meta_object_id": "1999-025DDX",
        "meta_epoch": "2025-12-11T22:14:50.921664",
        "meta_mean_motion": 13.69308763,
        "meta_eccentricity": 0.0264805,
        "meta_inclination": 98.4644,
        "meta_ra_of_asc_node": 236.7162,
        "meta_arg_of_pericenter": 275.2453,
        "meta_mean_anomaly": 81.8534,
        "meta_ephemeris_type": 0,
        "meta_classification_type": "U",
        "meta_norad_cat_id": 33638,
        "meta_element_set_no": 999,
        "meta_rev_at_epoch": 60904,
        "meta_bstar": 0.0019789,
        "meta_mean_motion_dot": 2.159e-05,
        "meta_mean_motion_ddot": 0,
        "tle_line1": "1 33638U 99025DDX 25345.92697826  .00002159  00000+0  19789-2 0  9998",
        "tle_line2": "2 33638  98.4644 236.7162 0264805 275.2453  81.8534 13.69308763609044"
      },
      "geometry": {
        "type": "Point",
        "coordinates": [
          -101.47138576436242,
          -67.4258414201174
        ]
      }
    },
    {
      "type": "Feature",
      "properties": {
        "norad_id": 33639,
        "name": "FENGYUN 1C DEB",
        "group": "fengyun-1c-debris",
        "lat": -79.05757033949389,
        "lon": -154.6459247412843,
        "alt_km": 732.4211410897324,
        "timestamp": "2025-12-12T20:43:07.321811+00:00",
        "meta_object_name": "FENGYUN 1C DEB",
        "meta_object_id": "1999-025DDY",
        "meta_epoch": "2025-12-03T23:45:48.189312",
        "meta_mean_motion": 14.40248408,
        "meta_eccentricity": 0.00493059,
        "meta_inclination": 98.7136,
        "meta_ra_of_asc_node": 68.813,
        "meta_arg_of_pericenter": 315.1865,
        "meta_mean_anomaly": 44.5345,
        "meta_ephemeris_type": 0,
        "meta_classification_type": "U",
        "meta_norad_cat_id": 33639,
        "meta_element_set_no": 999,
        "meta_rev_at_epoch": 60456,
        "meta_bstar": 0.0043899516,
        "meta_mean_motion_dot": 0.00014079,
        "meta_mean_motion_ddot": 0,
        "tle_line1": "1 33639U 99025DDY 25337.99014108  .00014079  00000+0  43900-2 0  9999",
        "tle_line2": "2 33639  98.7136  68.8130 0049305 315.1865  44.5345 14.40248408604567"
      },
      "geometry": {
        "type": "Point",
        "coordinates": [
          -154.6459247412843,
          -79.05757033949389
        ]
      }
    },
    {
      "type": "Feature",
      "properties": {
        "norad_id": 33640,
        "name": "FENGYUN 1C DEB",
        "group": "fengyun-1c-debris",
        "lat": 80.91934139261173,
        "lon": -173.53055677702383,
        "alt_km": 706.152585191262,
        "timestamp": "2025-12-12T20:43:07.321822+00:00",
        "meta_object_name": "FENGYUN 1C DEB",
        "meta_object_id": "1999-025DDZ",
        "meta_epoch": "2025-12-11T19:22:45.041664",
        "meta_mean_motion": 14.45889666,
        "meta_eccentricity": 0.00906976,
        "meta_inclination": 98.8406,
        "meta_ra_of_asc_node": 288.5217,
        "meta_arg_of_pericenter": 162.4466,
        "meta_mean_anomaly": 197.9894,
        "meta_ephemeris_type": 0,
        "meta_classification_type": "U",
        "meta_norad_cat_id": 33640,
        "meta_element_set_no": 999,
        "meta_rev_at_epoch": 92329,
        "meta_bstar": 0.00074722735,
        "meta_mean_motion_dot": 2.744e-05,
        "meta_mean_motion_ddot": 0,
        "tle_line1": "1 33640U 99025DDZ 25345.80746576  .00002744  00000+0  74723-3 0  9995",
        "tle_line2": "2 33640  98.8406 288.5217 0090697 162.4466 197.9894 14.45889666923295"
      },
      "geometry": {
        "type": "Point",
        "coordinates": [
          -173.53055677702383,
          80.91934139261173
        ]
      }
    },
    {
      "type": "Feature",
      "properties": {
        "norad_id": 33648,
        "name": "FENGYUN 1C DEB",
        "group": "fengyun-1c-debris",
        "lat": 3.8534601288196204,
        "lon": -15.044446597569529,
        "alt_km": 904.6893922589015,
        "timestamp": "2025-12-12T20:43:07.321832+00:00",
        "meta_object_name": "FENGYUN 1C DEB",
        "meta_object_id": "1999-025DEH",
        "meta_epoch": "2025-12-12T05:23:29.300352",
        "meta_mean_motion": 14.1177504,
        "meta_eccentricity": 0.0068852,
        "meta_inclination": 98.7195,
        "meta_ra_of_asc_node": 344.9271,
        "meta_arg_of_pericenter": 175.62,
        "meta_mean_anomaly": 184.559,
        "meta_ephemeris_type": 0,
        "meta_classification_type": "U",
        "meta_norad_cat_id": 33648,
        "meta_element_set_no": 999,
        "meta_rev_at_epoch": 64369,
        "meta_bstar": 0.00019458619,
        "meta_mean_motion_dot": 3.2e-06,
        "meta_mean_motion_ddot": 0,
        "tle_line1": "1 33648U 99025DEH 25346.22464468  .00000320  00000+0  19459-3 0  9990",
        "tle_line2": "2 33648  98.7195 344.9271 0068852 175.6200 184.5590 14.11775040643695"
      },
      "geometry": {
        "type": "Point",
        "coordinates": [
          -15.044446597569529,
          3.8534601288196204
        ]
      }
    }
  ]
}